"id","name","officialname","image","addressline1","addressline2","addressline3","tel","website","foundedon","colors","stadiumname","stadiumseats","currenttransferrecord","currentmarketvalue","squad_size","squad_averageage","squad_foreigners","squad_nationalteamplayers","competition_id"
"209","CA River Plate","Club Atlético River Plate","https://tmssl.akamaized.net//images/wappen/big/209.png","Avenida Presidente José Figueroa Alcorta","1428 Ciudad Autónoma de Buenos Aires","Argentina","+54 11 47881200","www.cariverplate.com.ar","1901-05-25","{#FFFFFF,#FF0000,#FFFFFF}","Mâs Monumental",85018,"-10560000","86250000",31,"28.1",6,8,"ARG1"
"189","CA Boca Juniors","Club Atlético Boca Juniors","https://tmssl.akamaized.net//images/wappen/big/189.png","Brandsen 805","C1161AAQ Buenos Aires","Argentina","+54 11 43094700","www.bocajuniors.com.ar","1905-04-03","{#0c41ab,#ffee00}","Alberto J. Armando",54000,"13360000","83550000",34,"28.4",8,3,"ARG1"
"1444","Racing Club","Racing Club Asociación Civil de Avellaneda","https://tmssl.akamaized.net//images/wappen/big/1444.png","Avenida Presidente Bartolomé Mitre 934","1870 Avellaneda, Buenos Aires","Argentina","+54 11 42011661","www.racingclub.com.ar","1903-03-25","{#00B3FF,#FFFFFF}","Presidente Perón",55000,"-8400000","77230000",33,"27.1",6,1,"ARG1"
"1234","CA Independiente","Club Atlético Independiente de Avellaneda","https://tmssl.akamaized.net//images/wappen/big/1234.png","Avenida Mitre 470","1870 Avellaneda, Buenos Aires","Argentina","+54 11 42221566","clubaindependiente.com","1905-01-01","{#F00303}","Libertadores de América-Ricardo Enrique Bochini",48069,"-946000","56950000",27,"27.1",7,6,"ARG1"
"1029","CA Vélez Sarsfield","Club Atlético Vélez Sársfield","https://tmssl.akamaized.net//images/wappen/big/1029.png","Avenida Juan B. Justo 9200","1408 Buenos Aires","Argentina","+54 11 46415663","www.velezsarsfield.com.ar","1910-01-01","{#FFFFFF,#2342DB}","José Amalfitani",49747,"-3920000","55030000",32,"26.4",5,3,"ARG1"
"288","Club Estudiantes de La Plata","Club Estudiantes de La Plata","https://tmssl.akamaized.net//images/wappen/big/288.png","Av. 53 nº 620","B1900 La Plata, Buenos Aires","Argentina","+54 (221) 4255716","www.estudiantesdelaplata.com","1905-08-04","{#de1d23,#ffffff}","Jorge Luis Hirschi",32530,"-6410000","46580000",28,"27.4",5,1,"ARG1"
"1418","CA Rosario Central","Club Atlético Rosario Central","https://tmssl.akamaized.net//images/wappen/big/1418.png","Mitre 853","2000 Rosario, Santa Fe","Argentina","+54 34 4724071","www.rosariocentral.com","1889-12-24","{#0000FF,#FFFF00,#FFFFFF}","Gigante de Arroyito",46755,"-374000","39400000",27,"26.7",5,2,"ARG1"
"3938","CA Talleres","Club Atlético Talleres","https://tmssl.akamaized.net//images/wappen/big/3938.png","","5000 Córdoba","Argentina","","www.clubtalleres.com.ar","1913-10-12","{#FFFFFF,#092178}","Mario Alberto Kempes",57000,"-995000","38950000",26,"26.7",8,3,"ARG1"
"1030","AA Argentinos Juniors","Asociación Atlética Argentinos Juniors","https://tmssl.akamaized.net//images/wappen/big/1030.png","Punta Arenas 1271","1427 Buenos Aires","Argentina","+54 (11) 45516887","www.argentinosjuniors.com.ar","1904-08-15","{#c92f34,#FFFFFF,#c92f34}","Diego Armando Maradona",22063,"7650000","37380000",31,"26.5",4,0,"ARG1"
"1775","CA San Lorenzo de Almagro","Club Atlético San Lorenzo de Almagro","https://tmssl.akamaized.net//images/wappen/big/1775.png","Avenida la Plata 1794","Buenos Aires","Argentina","+54 11 5263-4600","sanlorenzo.com.ar","1908-04-01","{#EC1E2A,#FFFFFF,#163756}","Pedro Bidegain",47964,"15010000","35080000",28,"25.1",4,2,"ARG1"
"333","CA Lanús","Club Atlético Lanús","https://tmssl.akamaized.net//images/wappen/big/333.png","Avenida 9. de Julio 1680","1824 Lanús, Buenos Aires","Argentina","+54 11 42414239","www.clublanus.com","1915-01-03","{}","Ciudad de Lanús - Néstor Díaz Pérez",46619,"12600000","32930000",31,"27.7",5,1,"ARG1"
"2417","Club Atlético Belgrano","Club Atlético Belgrano","https://tmssl.akamaized.net//images/wappen/big/2417.png","Calle Dr. Arturo Orgaz 510","5000 Córdoba","Argentina","+54 351 4111666","www.belgranocordoba.com","1905-03-19","{#0099D4}","Julio César Villagra",38550,"7150000","31450000",31,"28.4",5,2,"ARG1"
"12574","CD Godoy Cruz Antonio Tomba","Club Deportivo Godoy Cruz Antonio Tomba","https://tmssl.akamaized.net//images/wappen/big/12574.png","Calle Balcarce 477","5501 Mendoza","Argentina","+54 261 4249159","www.clubgodoycruz.com.ar","1921-06-01","{}","Feliciano Gambarte",23000,"5780000","30430000",32,"25.1",5,0,"ARG1"
"2063","CA Huracán","Club Atlético Huracán","https://tmssl.akamaized.net//images/wappen/big/2063.png","Amancio Alcorta 2570","Buenos Aires","Argentina","4942-1965","cahuracan.com","1908-11-01","{#FF0000,#FFFFFF,#0000FF}","Tomás Adolfo Ducó",43482,"10970000","29800000",30,"28",4,2,"ARG1"
"11831","Club Atlético Tigre","Club Atlético Tigre","https://tmssl.akamaized.net//images/wappen/big/11831.png","Guido Spano 1053","1644 Buenos Aires","Argentina","+54 (11) 47443949","www.catigre.com.ar","1902-08-03","{#14468B,#DD0036,#FFFFFF}","José Dellagiovanna",26282,"-417000","28150000",32,"26.2",5,1,"ARG1"
"2402","Defensa y Justicia","Club Social y Deportivo Defensa y Justicia","https://tmssl.akamaized.net//images/wappen/big/2402.png","Lavalle 126 - Florencio Varela","Florencio Varela, Buenos Aires","Argentina","+54 11 42372327","www.defensayjusticia.org.ar","1935-03-20","{#FFEE00,#63B015}","Norberto Tomaghello",18750,"4270000","28080000",32,"25.6",4,1,"ARG1"
"830","CA Banfield","Club Atlético Banfield","https://tmssl.akamaized.net//images/wappen/big/830.png","Vergara 1635","Banfield","Argentina","","clubabanfield.org","1896-01-21","{}","Florencio Sola",34901,"6480000","17300000",33,"25.7",7,3,"ARG1"
"928","Club Atlético Platense","Club Atlético Platense","https://tmssl.akamaized.net//images/wappen/big/928.png","Juan Zufriategui 2021","1602 Vicente López, Buenos Aires","Argentina","+54 11 47914748","www.cap.org.ar","1905-05-25","{#FFFFFF,#47220D}","Ciudad de Vicente López",28530,"-1320000","27430000",29,"26.3",3,1,"ARG1"
"1829","Instituto ACC","Instituto Atlético Central Córdoba","https://tmssl.akamaized.net//images/wappen/big/1829.png","Jujuy 2702","5000 Córdoba","Argentina","(351) 4740563","institutoacc.com.ar","1918-08-08","{#ff2424,#ffffff}","Juan Domingo Perón",25000,"4420000","26400000",29,"26.3",5,0,"ARG1"
"7097","CA Unión (Santa Fe)","Club Atlético Unión","https://tmssl.akamaized.net//images/wappen/big/7097.png","Av. López y Planes 3513","3000 Santa Fe","Argentina","+54 342 4539449","www.clubaunion.com.ar","1905-04-15","{#FF0000,#FFFFFF}","15 de Abril",27358,"3210000","25500000",31,"26.6",3,0,"ARG1"
"12179","CS Independiente Rivadavia","Club Sportivo Independiente Rivadavia","https://tmssl.akamaized.net//images/wappen/big/12179.png","Av. Boulogne Sur Mer 688","Mendoza","Argentina","","independienterivadavia.com.ar","1913-01-24","{#112063}","Bautista Gargantini",24000,"4130000","23950000",33,"26.8",5,1,"ARG1"
"25184","CA Barracas Central","Club Atlético Barracas Central","https://tmssl.akamaized.net//images/wappen/big/25184.png","Luna 1201","Buenos Aires","Argentina","4301-5855","www.barracascentral.com/","1904-04-05","{#fa0000,#ffffff}","Claudio Chiqui Tapia",18000,"0","21300000",30,"26.6",3,1,"ARG1"
"1286","CA Newell's Old Boys","Club Atlético Newell’s Old Boys","https://tmssl.akamaized.net//images/wappen/big/1286.png","Parque Independencia S/N","2000 Rosario, Santa Fe","Argentina","+54 341 4117725","www.newellsoldboys.com.ar","1903-11-03","{#FA0505,#080808}","Marcelo Bielsa",49000,"6720000","18700000",32,"27.4",6,2,"ARG1"
"31284","CA Central Córdoba (SdE)","Club Atlético Central Córdoba","https://tmssl.akamaized.net//images/wappen/big/31284.png","Granadero Saavedra 260","Santiago del Estero","Argentina","","","1919-06-03","{#FFFFFF,#000000}","Único Madre de Ciudades",30000,"-900000","17480000",33,"26.8",2,0,"ARG1"
"1106","Club de Gimnasia y Esgrima La Plata","Club de Gimnasia y Esgrima La Plata","https://tmssl.akamaized.net//images/wappen/big/1106.png","60 y 118","1900 La Plata, Buenos Aires","Argentina","","www.gimnasia.org.ar","1887-06-03","{}","Juan Carmelo Zerillo",30973,"4700000","16880000",33,"25.8",6,1,"ARG1"
"14554","Club Atlético Tucumán","Club Atlético Tucumán","https://tmssl.akamaized.net//images/wappen/big/14554.png","25 de Mayo 1351","4000 San Miguel de Tucumán","Argentina","+54 381 4313153","www.clubatleticotucuman.com.ar","1902-09-27","{#FFFFFF,#00CCFF}","Monumental José Fierro",35200,"6650000","15980000",29,"27.7",5,0,"ARG1"
"12454","CA Sarmiento (Junin)","Club Atlético Sarmiento","https://tmssl.akamaized.net//images/wappen/big/12454.png","Gandini 801","6000 Junín, Buenos Aires","Argentina","","clubatleticosarmiento.com","1911-04-01","{#1B6345}","Eva Perón",23156,"269000","12630000",32,"26.8",5,0,"ARG1"
"12301","CA Aldosivi","Club Atlético Aldosivi","https://tmssl.akamaized.net//images/wappen/big/12301.png","El Cano 3299","Mar del Plata","Argentina","","www.aldosivi.com","1913-03-29","{#2AA445,#E9E120}","José María Minella",35180,"0","10890000",32,"26.4",6,1,"ARG1"
"10511","CA San Martín (San Juan)","Club Atlético San Martín de San Juan","https://tmssl.akamaized.net//images/wappen/big/10511.png","Calle Mendoza 1164","5400 San Juan","Argentina","+54 (264) 4213017","www.soyverdinegro.com.ar","1907-09-27","{#33913c,#1a0202}","Ingeniero Hilario Sánchez",25500,"0","10130000",32,"28.7",1,0,"ARG1"
"19775","Club Deportivo Riestra","Asociación de Fomento Deportivo Riestra Barrio Colón","https://tmssl.akamaized.net//images/wappen/big/19775.png","Ana María Janer 2601","Buenos Aires","Argentina","+54 11 60128283","","1931-02-22","{#000000,#FFFFFF}","Guillermo Laza",10000,"-192000","7860000",32,"29.1",3,0,"ARG1"
"6878","Bolívar La Paz","Club Bolívar","https://tmssl.akamaized.net//images/wappen/big/6878.png","","La Paz","Bolivia","","www.clubbolivar.com","1925-04-12","{}","Estadio Hernando Siles",42000,"3130000","7450000",27,"28.4",9,9,"BO1A"
"42208","Club Always Ready","Club Always Ready","https://tmssl.akamaized.net//images/wappen/big/42208.png","","El Alto","Bolivia","","alwaysready.bo","1933-04-13","{#ffffff,#ff0000,#000000}","Estadio Municipal El Alto",25000,"724000","7380000",25,"25.2",6,6,"BO1A"
"8056","Blooming Santa Cruz","Club Blooming","https://tmssl.akamaized.net//images/wappen/big/8056.png","","Santa Cruz de la Sierra","Bolivia","","www.clubblooming.com.bo","1946-05-01","{#007FAD,#FF0000,#FFFFFF}","Estadio Ramón Tahuichi Aguilera",38000,"0","6900000",28,"26.8",7,3,"BO1A"
"92979","San Antonio Bulo Bulo","Club Deportivo San Antonio Bulo","https://tmssl.akamaized.net//images/wappen/big/92979.png","","Cochabamba","Bolivia","","","1962-09-09","{}","Estadio Carlos Villegas de Entre Ríos",0,"-393000","6780000",32,"26",8,3,"BO1A"
"6985","Club Deportivo Oriente Petrolero","Club Deportivo Oriente Petrolero","https://tmssl.akamaized.net//images/wappen/big/6985.png","Av. San Aurelio","Santa Cruz de la Sierra","Bolivia","+591 3-3531544","https://www.orientepetrolero.com.bo/","1955-11-05","{#0DAB25,#FFFFFF,#e1ffc4}","Estadio Ramón Tahuichi Aguilera",38000,"0","6480000",36,"26.7",6,3,"BO1A"
"132121","Gualberto Villarroel San José","","","","","","","",NULL,"{}","",NULL,NULL,NULL,NULL,NULL,NULL,NULL,"BO1A"
"5570","The Strongest La Paz","Club The Strongest","https://tmssl.akamaized.net//images/wappen/big/5570.png","","La Paz","Bolivia","(591) 720-99899","www.club-thestrongest.com/site","1908-04-08","{#E6E619,#030101}","Estadio Hernando Siles",42000,"0","5700000",27,"27.7",7,4,"BO1A"
"100047","Real Oruro","CDT Real Oruro","https://tmssl.akamaized.net//images/wappen/big/100047.png","","","","","",NULL,"{}","Estadio Jesús Bermúdez",40000,"0","5250000",38,"26.2",9,0,"BO1A"
"75558","CD Real Tomayapo","Club Deportivo Real Tomayapo","https://tmssl.akamaized.net//images/wappen/big/75558.png","","Tarija","Bolivia","+591 72941411","","1999-02-02","{#0B9914,#FFFFFF}","Estadio IV Centenario",15000,"44000","5230000",33,"27.1",8,0,"BO1A"
"23171","CA Nacional Potosí","Club Atlético Nacional Potosí","https://tmssl.akamaized.net//images/wappen/big/23171.png","","Potosí","Bolivia","","","1942-04-08","{#EB0000,#000000}","Estadio Víctor Augustín Ugarte",32105,"0","5050000",29,"28.7",7,0,"BO1A"
"17422","Club Deportivo Guabirá","Club Deportivo Guabirá","https://tmssl.akamaized.net//images/wappen/big/17422.png","","Montero","Bolivia","","","1962-04-14","{}","Estadio Gilberto Parada",13000,"0","5010000",29,"27.4",9,0,"BO1A"
"92977","Universitario de Vinto","Universitario de Vinto","https://tmssl.akamaized.net//images/wappen/big/92977.png","","Cochabamba","Bolivia","","","2005-03-23","{}","Estadio Félix Capriles",32303,"0","4630000",32,"25.8",6,1,"BO1A"
"93043","Club A.B.B.","Academia del Balompié Boliviano","https://tmssl.akamaized.net//images/wappen/big/93043.png","","La Paz","Bolivia","","","2021-09-10","{}","Estadio Municipal El Alto",22000,"0","4059999",38,"25.9",7,0,"BO1A"
"30854","Club Independiente Petrolero","Club Independiente Petrolero","https://tmssl.akamaized.net//images/wappen/big/30854.png","","Chuquisaca","Bolivia","","","1932-04-04","{}","Estadio Olímpico Patria",30700,"0","3450000",33,"27.8",8,0,"BO1A"
"12621","Club Aurora","Club Aurora","https://tmssl.akamaized.net//images/wappen/big/12621.png","Av, Circuito Bolivia - Lado Este","Cochabamba","Bolivia","4750707","www.clubaurora.com.bo","1935-05-27","{#25CFFA,#FCFFFF}","Estadio Félix Capriles",32303,"0","3230000",30,"29.4",8,1,"BO1A"
"4862","Club Jorge Wilstermann","Club Deportivo Jorge Wilstermann","https://tmssl.akamaized.net//images/wappen/big/4862.png","","Cochabamba","Bolivia","","","1949-11-24","{}","Estadio Felix Capriles",32303,"0","2800000",23,"26.2",5,0,"BO1A"
"1023","Sociedade Esportiva Palmeiras","Sociedade Esportiva Palmeiras","https://tmssl.akamaized.net//images/wappen/big/1023.png","Rua Palestra Itália 1840, Perdizes","05005-000 São Paulo","Brazil","+55 11 38746500","www.palmeiras.com.br","1914-08-26","{#006600,#FFFFFF,#FF0000}","Allianz Parque",43713,"47650000","212150000",29,"26.3",8,9,"BRA1"
"614","CR Flamengo","Clube de Regatas do Flamengo","https://tmssl.akamaized.net//images/wappen/big/614.png","Avenida Borges de Medeiros 997, Bairro L","22430-041 Rio de Janeiro","Brazil","+55 21 25290100","www.flamengo.com.br","1895-11-15","{#C22A1E,#000000}","Estádio Jornalista Mário Filho",82238,"-11850000","195900000",31,"28.5",10,11,"BRA1"
"537","Botafogo de Futebol e Regatas","S. A. F. Botafogo","https://tmssl.akamaized.net//images/wappen/big/537.png","Avenida Venceslau Brás 72, Bairro Botafa","22290-140 Rio de Janeiro","Brazil","+55 21 25461950","www.botafogo.com.br","1894-07-01","{#080808,#FFFFFF}","Estádio Olímpico Nilton Santos",46931,"-59350000","138350000",31,"27.4",11,5,"BRA1"
"609","Cruzeiro Esporte Clube","Cruzeiro Esporte Clube","https://tmssl.akamaized.net//images/wappen/big/609.png","Rua Adolfo Lippi Fonseca, 250, Trevo","31545-260 Belo Horizonte","Brazil","+55 31 34991020","www.cruzeiro.com.br","1921-01-02","{#0055FA,#FFFFFF}","Estádio Governador Magalhães Pinto",61927,"-39940000","125650000",31,"26.6",6,5,"BRA1"
"199","Sport Club Corinthians Paulista","Sport Club Corinthians Paulista","https://tmssl.akamaized.net//images/wappen/big/199.png","Rua São Jorge 777, Tatuapé","03087-000 São Paulo","Brazil","+55 11 61953000","www.corinthians.com.br","1910-09-01","{#050405,#FFFFFF}","Neo Química Arena",49205,"16180000","110450000",32,"26.3",8,6,"BRA1"
"978","Clube de Regatas Vasco da Gama","Club de Regatas Vasco da Gama","https://tmssl.akamaized.net//images/wappen/big/978.png","Av Roberto Dinamite 10, Bairro Vas","20921-060 Rio de Janeiro","Brazil","+55 21 21767373","www.crvascodagama.com","1898-08-21","{#000000,#ffffff,#ff0000}","Estádio São Januário",24584,"-9880000","108150000",36,"26.6",9,4,"BRA1"
"10010","Esporte Clube Bahia","Esporte Clube Bahia","https://tmssl.akamaized.net//images/wappen/big/10010.png","Avenida Octávio Mangabeira","41715-000 Salvador","Brazil","+55 71 22031931","www.esporteclubebahia.com.br","1931-01-01","{#FFFFFF,#FF0000,#0000FF}","Arena Fonte Nova",47364,"-16530000","101500000",29,"27.7",5,2,"BRA1"
"330","Clube Atlético Mineiro","Clube Atlético Mineiro","https://tmssl.akamaized.net//images/wappen/big/330.png","Avenida Olegário Maciel 1516","30180-111 Belo Horizonte","Brazil","+55 31 32901313","www.atletico.com.br","1908-03-25","{#050505,#FFFFFF}","Arena MRV",46000,"1340000","97400000",32,"26.9",6,4,"BRA1"
"2462","Fluminense Football Club","Fluminense Football Club","https://tmssl.akamaized.net//images/wappen/big/2462.png","Rua Álvaro Chaves 41, Bairro Laranjeiras","22231-220 Rio de Janeiro","Brazil","+55 21 25537240","www.fluminense.com.br","1902-07-21","{#910029,#FFFFFF,#006941}","Estádio Jornalista Mário Filho",82238,"21050000","94100000",34,"29",11,4,"BRA1"
"8793","Red Bull Bragantino","Red Bull Bragantino","https://tmssl.akamaized.net//images/wappen/big/8793.png","Rua Emílio Coleta","12900-000 Bragança Paulista","Brazil","+55 11 78440907","www.redbullbragantino.com.br","1928-01-08","{}","Estádio Municipal Cicero De Souza Marques",12000,"-332000","90700000",36,"25.1",8,2,"BRA1"
"585","São Paulo Futebol Clube","São Paulo Futebol Clube","https://tmssl.akamaized.net//images/wappen/big/585.png","Praça Roberto Gomez Pedrosa 1, Morumbi","05653-070 São Paulo","Brazil","+55 11 37498000","www.saopaulofc.net","1930-01-25","{#FF0000,#FFFFFF,#000000}","MorumBIS",72039,"20910000","89850000",34,"28",11,3,"BRA1"
"210","Grêmio Foot-Ball Porto Alegrense","Grêmio Foot-Ball Porto Alegrense","https://tmssl.akamaized.net//images/wappen/big/210.png","Av. Padre Leopoldo Brentano, 110","90251-903 Porto Alegre","Brazil","+55 51 3218-2000","www.gremio.net","1903-09-15","{}","Arena do Grêmio",60540,"-1830000","86450000",38,"27.8",12,5,"BRA1"
"6600","Sport Club Internacional","Sport Club Internacional","https://tmssl.akamaized.net//images/wappen/big/6600.png","Avenida Padre Cacique, 891","90810-240 Porto Alegre","Brazil","+55 51 32304600","www.internacional.com.br","1909-04-04","{#F00000,#FFFFFF}","Estádio Beira-Rio",50848,"11100000","86000000",29,"27.1",9,4,"BRA1"
"221","Santos FC","Santos Futebol Clube","https://tmssl.akamaized.net//images/wappen/big/221.png","Rua Princesa Isabel s/n°, Vila Belmiro","11075-500 Santos","Brazil","+55 13 32574000","www.santosfc.com.br","1912-04-14","{#FFFFFF,#000000}","Estádio Urbano Caldeira",16068,"11590000","82800000",33,"26.6",9,2,"BRA1"
"10870","Fortaleza Esporte Clube","Fortaleza Esporte Clube","https://tmssl.akamaized.net//images/wappen/big/10870.png","Avenida Senador Fernandes Távora 200","Fortaleza, Ceará","Brazil","+55 85 34962846","fortaleza1918.com.br","1918-10-18","{}","Estádio Governador Plácido Castelo",60326,"4150000","47180000",37,"29.3",10,1,"BRA1"
"8718","Sport Club do Recife","Sport Club do Recife","https://tmssl.akamaized.net//images/wappen/big/8718.png","Av, Sport Club do Recife, Ilha do Retiro","50750-500 Recife","Brazil","+55 (81) 32271213","www.sportrecife.com.br","1905-05-13","{}","Estádio Adelmar da Costa Carvalho",35000,"428000","39500000",32,"28.9",6,0,"BRA1"
"2125","Esporte Clube Vitória","Esporte Clube Vitória","https://tmssl.akamaized.net//images/wappen/big/2125.png","Rua Artêmio Castro Valente 1, Bairro Nos","41750-240 Salvador","Brazil","+55 (71) 33339120","www.ecvitoria.com.br","1899-05-13","{#CC1010,#080808}","Estádio Manoel Barradas",30618,"1010000","33500000",34,"28.2",6,0,"BRA1"
"2029","Ceará Sporting Club","Ceará Sporting Club","https://tmssl.akamaized.net//images/wappen/big/2029.png","Avenida Joáo Pessoa 3532, Porangabuçu","60425 Fortaleza","Brazil","+55 (85) 3494 9040","www.cearasc.com","1914-06-02","{#050505,#fafafa}","Estádio Plácido Aderaldo Castelo",63903,"7740000","32850000",32,"29.3",3,0,"BRA1"
"10492","Esporte Clube Juventude","Esporte Clube Juventude","https://tmssl.akamaized.net//images/wappen/big/10492.png","Rua Hércules Galló 1547","95020-330 Caxias do Sul","Brazil","","www.juventude.com.br","1913-06-29","{}","Estádio Alfredo Jaconi",23726,"1930000","23200000",36,"28.1",5,1,"BRA1"
"3876","Mirassol Futebol Clube (SP)","Mirasol Futebol Clube","https://tmssl.akamaized.net//images/wappen/big/3876.png","Avenida Lauro Luchesi","13309-050 MIrassol -  São Paulo","Brazil","","www.mirassolfc.com.br","1925-11-09","{#3AD10C,#EDD207}","Estádio Municipal José María de Campos Maia",14534,"-318000","22530000",33,"29.3",1,0,"BRA1"
"1037","Club Universidad de Chile","Club de Fútbol Profesional Universidad de Chile","https://tmssl.akamaized.net//images/wappen/big/1037.png","El Parrón 0939, La Cisterna","7970000 Santiago de Chile","Chile","+56 (2) 2393338","www.udechile.cl","1927-05-24","{#08007a,#ff0000,#ffffff}","Nacional Julio Martínez Prádanos",46190,"-943000","24650000",27,"27.9",6,12,"CLPD"
"2433","CSD Colo-Colo","Corporación Club Social y Deportivo Colo-Colo","https://tmssl.akamaized.net//images/wappen/big/2433.png","Avenida Maratón 5300","Macul (Santiago de Chile)","Chile","+56 2 2947300","www.colocolo.cl","1925-04-19","{#ffffff,#000000,#e00000}","Monumental David Arellano",43667,"4840000","22130000",25,"27.7",5,8,"CLPD"
"7020","CD Everton","Corporación Deportiva Everton de Viña del Mar","https://tmssl.akamaized.net//images/wappen/big/7020.png","","Viña del Mar","Chile","","www.everton.cl","1909-06-24","{#000fb3,#e3ff0d,#73002a}","Sausalito",19200,"500000","11480000",28,"28.1",8,2,"CLPD"
"3277","CD Universidad Católica","Club Deportivo Universidad Católica","https://tmssl.akamaized.net//images/wappen/big/3277.png","Circunvalación Las Flores 13000","Las Condes (Santiago de Chile)","Chile","+56 2 24124710","www.cruzados.cl","1937-04-21","{#FFFFFF,#0379E5,#E30000}","Claro Arena - San Carlos de Apoquindo",20249,"2760000","11350000",23,"28.4",4,8,"CLPD"
"6368","Huachipato FC","Club Deportivo Huachipato","https://tmssl.akamaized.net//images/wappen/big/6368.png","Desiderio García s/n","Talcahuano","Chile","","www.huachipatofc.cl","1947-06-07","{#002db5,#000000,#f7ff00}","Huachipato-CAP Acero",10032,"2290000","11300000",35,"25.8",8,1,"CLPD"
"11470","CD O'Higgins","Club Deportivo O'Higgins S.A.D.P.","https://tmssl.akamaized.net//images/wappen/big/11470.png","Monasterio Parcela San José, Santa Lucil","Rancagua","Chile","(72) 2 95 52 63","www.ohigginsfc.cl","1955-04-07","{#12b2c7,#ffffff,#000000}","El Teniente",14450,"0","11260000",22,"26",7,0,"CLPD"
"4321","Unión Española","Unión Española S.A.D.P.","https://tmssl.akamaized.net//images/wappen/big/4321.png","Julio Martínez Prádanos 1241","Santiago","Chile","+56 2 7354110","www.unionespanola.cl","1897-05-18","{#FF0000,#EEFF00,#02002E}","Santa Laura - Universidad SEK",19887,"0","11080000",30,"25.3",8,3,"CLPD"
"6363","Audax Italiano","Audax Club Sportivo Italiano","https://tmssl.akamaized.net//images/wappen/big/6363.png","Enrique Olivares 1003","757-0003 La Florida (Santiago de Chile)","Chile","+56 (2) 29632200","www.audaxitaliano.cl","1910-11-30","{#139100,#FFFFFF,#FF0000}","Bicentenario de La Florida",11367,"275000","10550000",28,"25.6",8,2,"CLPD"
"11004","Coquimbo Unido","Club de Deportes Coquimbo Unido S.A.D.P.","https://tmssl.akamaized.net//images/wappen/big/11004.png","Calle Edwards 50","1780000 Coquimbo","Chile","+56 (51) 321 311","www.coquimbounido.cl","1957-08-15","{#FFCC00,#000000,#FFFFFF}","Francisco Sánchez Rumoroso",17750,"1340000","10380000",25,"27.6",8,2,"CLPD"
"6536","CD Palestino","Club Deportivo Palestino S.A.","https://tmssl.akamaized.net//images/wappen/big/6536.png","Avenida El Parrón 999, La Cisterna","797-0227 Santiago","Chile","+56 2 4811170","palestino.cl","1920-08-20","{#FFFFFF,#05853f,#e2010a}","Municipal de La Cisterna",8000,"3360000","9230000",27,"28.4",6,1,"CLPD"
"5747","Deportes La Serena","Club de Deportes La Serena","https://tmssl.akamaized.net//images/wappen/big/5747.png","","La Serena","Chile","","www.cdlaserena.cl","1955-12-09","{#AD000E,#FFFFFF}","La Portada",17134,"0","8750000",30,"26.6",9,0,"CLPD"
"20514","Unión La Calera","Unión La Calera","https://tmssl.akamaized.net//images/wappen/big/20514.png","","","","","ulc.cl","1954-01-26","{#ff000d,#ffffff,#2003ff}","Nicolás Chahuán Nazar",9200,"0","7710000",26,"25.7",7,0,"CLPD"
"18076","Club Deportes Iquique","Club Deportes Iquique S.A.D.P.","https://tmssl.akamaized.net//images/wappen/big/18076.png","Alto Los Verdes S/N - Complejo Cesare Ro","1100000 Iquique","Chile","+(56 57) 2430028","www.clubdeportesiquique.com","1978-05-21","{#00D1C7,#000000,#6E2700}","Tierra de Campeones",13171,"-261000","7010000",28,"30.2",9,1,"CLPD"
"26697","Deportes Limache","Club de Deportes Limache S.A.D.P.","https://tmssl.akamaized.net//images/wappen/big/26697.png","","2240000 Limache","Chile","","www.deporteslimache.cl/","2012-11-01","{#000000,#FF0000,#FFFFFF}","Lucio Fariña Fernández",7265,"0","6910000",25,"28.5",9,1,"CLPD"
"14723","CD Ñublense","Club Deportivo Ñublense","https://tmssl.akamaized.net//images/wappen/big/14723.png","Pedro Aguirre Cerda 297","3780000 Chillán","Chile","","www.cdnublense.cl/","1916-08-20","{#ff0000,#000000,#ffffff}","Nelson Oyarzún",11319,"0","6630000",22,"29.4",5,0,"CLPD"
"17482","CD Cobresal","Club Deportes Cobresal","https://tmssl.akamaized.net//images/wappen/big/17482.png","Avenida Arqueros 2500","El Salvador","Chile","+56 (52) 472 392","www.cdcobresal.cl","1979-05-05","{#FFFFFF,#ED6700,#126E00}","El Cobre",11240,"0","6580000",24,"26.8",7,1,"CLPD"
"8172","Atlético Nacional","Corporación Deportiva Club Atlético Nacional","https://tmssl.akamaized.net//images/wappen/big/8172.png","Calle 62 No 44-103. Itagüí","Medellín","Colombia","(574) 5406920","www.atlnacional.com.co","1947-03-07","{#3BBD68,#3BBD68}","Estadio Atanasio Girardot",45943,"5260000","23500000",27,"27.5",4,4,"COL1"
"2352","CD América de Cali","América de Cali S. A.","https://tmssl.akamaized.net//images/wappen/big/2352.png","Carrera 56 No. 2-70","Cali - Valle del Cauca","Colombia","5130417, 5130418, 51","www.americadecali.co","1927-02-13","{#e31919,#ffffff,#000000}","Estadio Olímpico Pascual Guerrero",42300,"-1010000","17750000",34,"27.8",6,5,"COL1"
"11854","Junior FC","Corporación Deportiva Popular Junior","https://tmssl.akamaized.net//images/wappen/big/11854.png","Carrera 57 Nº 72 - 56","Barranquilla","Colombia","+57 5 3600338","juniorfc.co","1924-08-07","{#F70000,#FFFFFF,#11008F}","Metropolitano Roberto Meléndez",46692,"2780000","15530000",34,"27.8",4,0,"COL1"
"2350","Millonarios FC","Millonarios Fútbol Club","https://tmssl.akamaized.net//images/wappen/big/2350.png","Carrera 30 y Calle 57","Bogotá D.C.","Colombia","+57 (1) 7433941","https://millonarios.com.co/","1946-06-18","{#061e51,#ffffff,#001644}","Estadio Nemesio Camacho (El Campín)",36343,"-240000","14750000",33,"27.6",5,1,"COL1"
"10093","Independiente Medellín","Corporación Deportiva Independiente Medellín S.A.","https://tmssl.akamaized.net//images/wappen/big/10093.png","Carrera 74 No 48 - 37 Centro Comercial O","Medellín","Colombia","+57 (4) 4446789","dimoficial.com","1914-04-15","{}","Estadio Atanasio Girardot",45943,"6090000","14530000",27,"27.9",2,0,"COL1"
"10503","Deportes Tolima","Club Deportes Tolima SA","https://tmssl.akamaized.net//images/wappen/big/10503.png","Carrera 4A Bis No. 34 - 60","730006 Ibagué","Colombia","+57 8 2644954","www.clubdeportestolima.com.co","1954-12-18","{}","Estadio Manuel Murillo Toro",28100,"2830000","13250000",26,"26.9",4,1,"COL1"
"6984","Once Caldas","Corporación Deportiva Once Caldas","https://tmssl.akamaized.net//images/wappen/big/6984.png","Estadio Palogrande. Puerta 18","Manizales - Caldas","Colombia","(6) 8813482 - 881348","www.oncecaldas.com.co","1961-01-15","{}","Estadio Palogrande",28678,"3200000","11830000",33,"27",2,1,"COL1"
"11648","Independiente Santa Fe","Santa Fe Corporación Deportiva","https://tmssl.akamaized.net//images/wappen/big/11648.png","Calle 64 a Nº 50 b - 08 (Nueva Nomenclat","Bogotá, Distrito Capital","Colombia","5439001","www.independientesantafe.com","1941-02-28","{}","Estadio Nemesio Camacho (El Campín)",36343,"0","10230000",27,"29.7",3,0,"COL1"
"17425","CD La Equidad Seguros SA","Club Deportivo La Equidad Seguros","https://tmssl.akamaized.net//images/wappen/big/17425.png","Calle 193 Nº 38 - 20","Bogotá, Distrito Capital","Colombia","+57 (1) 6345230","https://equidadclubdeportivo.coop","1990-10-12","{}","Estadio Metropolitano de Techo",8000,"4690000","8750000",28,"23.7",5,2,"COL1"
"9961","Deportivo Cali","Asociación Deportivo Cali","https://tmssl.akamaized.net//images/wappen/big/9961.png","Calle 34 Norte # 2 BN 75","Cali, Valle del Cauca","Colombia","6880808","www.deportivocali.com.co","1912-11-23","{#055907,#FFFFFF}","Estadio Deportivo Cali",52000,"4710000","8230000",26,"27.7",4,0,"COL1"
"32041","Fortaleza CEIF","Fortaleza Fútbol Club S.A.","https://tmssl.akamaized.net//images/wappen/big/32041.png","","Bogotá","Colombia","+54 (1) 6290688","www.fortalezafc.com","2011-01-04","{}","Parque Estadio Olaya Herrera",2500,"2040000","8000000",28,"25.1",0,0,"COL1"
"6495","Atlético Bucaramanga","Club Atlético Bucaramanga Corporación Deportiva","https://tmssl.akamaized.net//images/wappen/big/6495.png","Carrera 20 No. 34-47 Of. 204 Edificio Gu","Bucaramanga","Colombia","+57 (7) 6702212","https://atleticobucaramanga.com.co/","1949-05-11","{#fff30a,#16e00b,#ffffff}","Estadio Américo Montanini",28000,"-100000","7630000",26,"29.1",4,1,"COL1"
"9811","Deportivo Pereira","Corporación Social Deportiva y Cultural de Pereira","https://tmssl.akamaized.net//images/wappen/big/9811.png","Calle 14 N°: 12-198","Pereira - Risaralda","Colombia","(6) 3357363 - 335735","www.deportivopereira.com.co","1944-02-12","{#FFEA00,#FF0000}","Estadio Hernán Ramírez Villegas",30297,"0","7500000",30,"28.3",3,1,"COL1"
"20590","Rionegro Águilas","Águilas Doradas Sincelejo","https://tmssl.akamaized.net//images/wappen/big/20590.png","","Sincelejo","Colombia","(604) 4914347","aguilasdoradas.com.co","2008-04-16","{}","Estadio Arturo Cumplido Sierra",5000,"1750000","7430000",29,"27.1",4,2,"COL1"
"7136","Envigado FC","Corporación Deportiva Envigado Fútbol Club","https://tmssl.akamaized.net//images/wappen/big/7136.png","Carrera 48 #48C Sur 16","Envigado","Colombia","+57 (034) 480-4050","envigadofc.co","1989-10-14","{#fa3c14,#ffffff,#00000}","Estadio Polideportivo Sur",14000,"0","6880000",29,"22.7",1,0,"COL1"
"38628","Llaneros FC","","https://tmssl.akamaized.net//images/wappen/big/38628.png","","","","","","2012-04-20","{}","Estadio Bello Horizonte",15000,"0","5980000",30,"27.3",3,0,"COL1"
"10090","Asociación Deportivo Pasto","Asociación Deportivo Pasto","https://tmssl.akamaized.net//images/wappen/big/10090.png","Estadio Departamental Libertad","San Juan de Pasto","Colombia","+57 2 7204122","deportivopastooficial.com","1948-11-30","{}","Estadio Departamental Libertad",20000,"250000","5350000",29,"27.3",4,0,"COL1"
"22902","Alianza FC","Corporación Deportivo Alianza Petrolera","https://tmssl.akamaized.net//images/wappen/big/22902.png","Calle 67 Carrera 11","Barrancabermeja","Colombia","+57 7 6213030","www.alianzapetrolerafc.com","1991-10-24","{#FFFF00,#000000}","Estadio Armando Maestre Pavajeau",11500,"0","5000000",32,"27.7",2,0,"COL1"
"14680","Unión Magdalena","Club Union Magdalena S.A.","https://tmssl.akamaized.net//images/wappen/big/14680.png","","Santa Marta","Colombia","","","1953-04-19","{#0e2ae6,#f20909}","Estadio Sierra Nevada (Santa Marta)",16126,"0","4600000",29,"25.8",5,0,"COL1"
"14649","Boyacá Chicó FC","Deportivo Boyacá Chicó Fútbol Club S.A.","https://tmssl.akamaized.net//images/wappen/big/14649.png","Carrera 7 No 156-80. Torre 1. Oficina 13","Tunja","Colombia","+57 (1) 6738218","boyacachicofutbolclub.com","2002-03-26","{}","Estadio de la Independencia",20630,"0","3130000",38,"26.1",4,0,"COL1"
"19309","Independiente del Valle","Club de Alto Rendimiento Especializado Independiente del Valle","https://tmssl.akamaized.net//images/wappen/big/19309.png","Via. Amaguana Calle F S/N y Calle I","Sangolquí","Ecuador","","independientedelvalle.com","1958-03-01","{#130080,#FD44A0}","Estadio Banco Guayaquil",12000,"19070000","28330000",28,"26.2",9,4,"EC1N"
"3523","Barcelona SC Guayaquil","Barcelona Sporting Club","https://tmssl.akamaized.net//images/wappen/big/3523.png","Av. Barcelona Sporting Club","Guayaquil","Ecuador","","www.barcelonasc.com.ec","1925-05-01","{#FAFA00,#000000,#e80e0e}","Monumental Banco Pichincha",57267,"29000","20400000",30,"28.3",7,3,"EC1N"
"9855","LDU Quito","Liga Deportiva Universitaria de Quito","https://tmssl.akamaized.net//images/wappen/big/9855.png","Robles 653 y Amazonas, Edificio Proinco","Quito","Ecuador","+593 2 2527613","www.ldu.com.ec","1918-10-23","{#FFFFFF,#FF0000,#000AC4}","Rodrigo Paz Delgado",45575,"2220000","18700000",27,"27.7",7,5,"EC1N"
"6362","SD Aucas","Sociedad Deportiva Aucas","https://tmssl.akamaized.net//images/wappen/big/6362.png","Villalengua E1-48 e Iñaquito","Quito","Ecuador","","www.aucas.com.ec","1945-02-06","{#FFFF00,#C0C0C0}","Estadio Gonzalo Pozo Ripalda",18799,"0","10100000",26,"25.7",8,1,"EC1N"
"17584","CD Universidad Católica","Club Deportivo de la Pontificia Universidad Católica","https://tmssl.akamaized.net//images/wappen/big/17584.png","González Suárez N27–317 y San Ignacio","Quito","Ecuador","","www.ucatolicaec.com","1963-05-15","{#8CCDFF,#FFFFFF,#121E87}","Olímpico Atahualpa",39861,"0","10000000",25,"26.9",8,4,"EC1N"
"36020","Orense SC","","https://tmssl.akamaized.net//images/wappen/big/36020.png","","","","","","2009-12-15","{}","Estadio 9 de Mayo",16456,"0","9700000",28,"26.8",8,1,"EC1N"
"4561","CS Emelec","Club Sport Emelec","https://tmssl.akamaized.net//images/wappen/big/4561.png","General Gómez #1312 y Avenida Quito","Guayaquil","Ecuador","","www.emelec.com.ec","1929-04-28","{#0404D3,#E2E2E2,#010137}","Estadio George Capwell",40000,"363000","9450000",32,"27.4",5,1,"EC1N"
"8781","Deportivo Cuenca","Club Deportivo Cuenca","https://tmssl.akamaized.net//images/wappen/big/8781.png","Avenida del Estadio y José Peralta","Cuenca","Ecuador","+593 7 2832314","www.clubdeportivocuenca.com","1971-03-04","{#FF0000,#1724B5}","Estadio Alejandro Serrano Aguilar",22000,"0","8199999",26,"26.9",8,0,"EC1N"
"17426","CD Macará","Club Deportivo Macará","https://tmssl.akamaized.net//images/wappen/big/17426.png","Ficoa, Av. Luis Pachano y Guiragchuros","Ambato","Ecuador","+593 3 2822242","www.csdmacara.com.ec","1939-08-25","{#009DDB,#000000}","Estadio Bellavista",18000,"0","7750000",27,"28",9,1,"EC1N"
"18099","Manta FC","","https://tmssl.akamaized.net//images/wappen/big/18099.png","","","","","","1998-07-27","{}","Estadio Jocay",17834,"0","7160000",33,"26.1",9,0,"EC1N"
"25958","Vinotinto FC","Club Deportivo Cuniburo Fútbol Club","https://tmssl.akamaized.net//images/wappen/big/25958.png","","Cayambe","Ecuador","593-2-2792166","","1992-04-11","{}","Estadio Olímpico Atahualpa",39861,"0","6650000",24,"27.5",7,0,"EC1N"
"25576","Mushuc Runa SC","Club Deportivo Mushuc Runa Sporting Club","https://tmssl.akamaized.net//images/wappen/big/25576.png","","Ambato","Ecuador","","www.mushucrunasportingclub.com","2003-01-02","{#FFFFFF,#FF6220}","Estadio Olímpico de Riobamba",14400,"0","6400000",24,"28.6",5,0,"EC1N"
"87068","Libertad FC","Libertad Fútbol Club","https://tmssl.akamaized.net//images/wappen/big/87068.png","","","","","","2017-05-17","{}","Estadio Federativo Reina del Cisne",14935,"0","6050000",24,"27",0,0,"EC1N"
"19304","Delfín SC","Club Deportivo Delfín Sporting Club","https://tmssl.akamaized.net//images/wappen/big/19304.png","","Manta","Ecuador","","www.delfinsc.com.ec","1989-03-01","{#fae528,#154abd,#ffffff}","Estadio Jocay",21000,"0","5600000",30,"25.4",7,0,"EC1N"
"1143","CD El Nacional","Club Especializado de Alto Rendimiento El Nacional","https://tmssl.akamaized.net//images/wappen/big/1143.png","Yasuní e Isla San Cristóbal, Ciudadela J","Quito","Ecuador","","www.elnacional.ec","1964-06-01","{#FF0000,#FFFFFF,#BDBDBD}","Estadio Olímpico Atahualpa",39861,"0","5200000",25,"28.1",0,1,"EC1N"
"19104","Técnico Universitario","Club Deportivo Técnico Universitario","https://tmssl.akamaized.net//images/wappen/big/19104.png","Av. 12 de Noviembre C.C. Ambato Bloque N","Ambato","Ecuador","+593 3 2421682","","1971-03-26","{#ED1D24,#FFFFFF,#000000}","Estadio Bellavista",18000,"0","5080000",25,"28.1",8,0,"EC1N"
"1214","Club Cerro Porteño","Club Cerro Porteño","https://tmssl.akamaized.net//images/wappen/big/1214.png","Avenida 5ta c/ Tacuary","Asunción","Paraguay","+595 21 370090","www.cerro.com.py","1912-10-01","{#DB001D,#0009B3,#FFFFFF}","Estadio General Pablo Rojas",45000,"38000","26950000",30,"28",10,3,"PR1A"
"629","Olimpia Asunción","Club Olimpia","https://tmssl.akamaized.net//images/wappen/big/629.png","","Asuncíon","Paraguay","","www.clubolimpia.com.py","1902-07-25","{#FFFAFA,#000000,#FFFFFF}","Estadio Manuel Ferreira",20000,"435000","25250000",30,"25.5",5,2,"PR1A"
"9875","Club Libertad Asunción","","https://tmssl.akamaized.net//images/wappen/big/9875.png","","Asunción","Paraguay","","www.clublibertad.com.py","1905-07-30","{#f2f2f2,#000000}","Estadio La Huerta",10000,"4750000","21050000",30,"27.9",1,0,"PR1A"
"11855","Club Guaraní","Club Guaraní","https://tmssl.akamaized.net//images/wappen/big/11855.png","Dr. Eusebio Ayala Nº 770","Asunción","Paraguay","595 21 2270 80","www.clubguarani.com.py","1903-10-12","{#000000,#fcca00,#fafafa}","Estadio Rogelio Livieres",8000,"48000","12030000",33,"26.6",5,1,"PR1A"
"7098","Club Nacional Asunción","Club Nacional","https://tmssl.akamaized.net//images/wappen/big/7098.png","Avenida Cerro Léon y Paraguari","Asunción","Paraguay","","www.clubnacional.com.py","1904-06-05","{}","Estadio Arsenio Erico",7500,"0","7650000",30,"27.4",5,1,"PR1A"
"95571","Sportivo Ameliano","Club Sportivo Ameliano","https://tmssl.akamaized.net//images/wappen/big/95571.png","PCC2+CVX","Asunción","Paraguay","","","1936-01-06","{}","Estadio La Fortaleza del Pikysyry",7000,"0","5830000",35,"28.5",6,0,"PR1A"
"7656","Sportivo Luqueño","Club Sportivo Luqueño","https://tmssl.akamaized.net//images/wappen/big/7656.png","","Luque","Paraguay","","","1921-05-01","{}","Estadio Feliciano Cáceres",26974,"0","5480000",30,"26.3",4,0,"PR1A"
"17484","Club Sportivo 2 de Mayo","","https://tmssl.akamaized.net//images/wappen/big/17484.png","","","","","",NULL,"{}","Estadio Río Parapití",25000,"100000","5050000",32,"26.8",3,0,"PR1A"
"17427","Club Sportivo Trinidense","","https://tmssl.akamaized.net//images/wappen/big/17427.png","","","","","",NULL,"{}","Estadio Martín Torres",3000,"0","4550000",29,"27.8",4,0,"PR1A"
"95573","Club General Caballero (JLM)","Club General Bernardino Caballero","https://tmssl.akamaized.net//images/wappen/big/95573.png","","Doctor Juan León Mallorquín","Paraguay","","","1962-06-21","{}","Estadio Leandro Ovelar",10000,"459000","4080000",29,"26.5",5,0,"PR1A"
"908","Atlético Tembetary","","","","","","","",NULL,"{}","",NULL,NULL,NULL,NULL,NULL,NULL,NULL,"PR1A"
"14545","Recoleta FC","","","","","","","",NULL,"{}","",NULL,NULL,NULL,NULL,NULL,NULL,NULL,"PR1A"
"184","Club Alianza Lima","Club Alianza Lima","https://tmssl.akamaized.net//images/wappen/big/184.png","Av. Isabel la Católica 821","15033 Lima","Peru","13305497","clubalianzalima.com.pe","1901-02-15","{#1d1f3d,#ffffff}","Estadio Alejandro Villanueva",33938,"4620000","15180000",35,"28",9,11,"TDeC"
"1450","Club Sporting Cristal","Club Sporting Cristal","https://tmssl.akamaized.net//images/wappen/big/1450.png","","Lima","Peru","","www.clubsportingcristal.pe","1955-12-13","{#0dabdb,#ffffff}","Estadio Alberto Gallardo",18000,"2470000","14100000",32,"25.6",5,8,"TDeC"
"6593","Universitario de Deportes","Club Universitario de Deportes","https://tmssl.akamaized.net//images/wappen/big/6593.png","Av. Javier Prado Este 7596","15026 Lima","Peru","","universitario.pe","1924-08-07","{#8C1619,#FEFCF3}","Estadio Monumental de Lima",80093,"-53000","13380000",31,"28.3",9,12,"TDeC"
"2734","FBC Melgar","Foot Ball Club Melgar","https://tmssl.akamaized.net//images/wappen/big/2734.png","Consuelo 408 - Cercado Arequipa","04001 Arequipa","Peru","+51 54 233091","fbcmelgar.com.pe","1915-03-25","{#D92119,#000000}","Estadio Monumental de la UNSA",40370,"823000","9240000",32,"26.9",9,2,"TDeC"
"35589","Alianza Universidad","Club Social Deportivo Alianza Universidad","https://tmssl.akamaized.net//images/wappen/big/35589.png","","Huanuco","Peru","","","1939-01-01","{#3b3da1,#fa292e}","Estadio Heraclio Tapia",25000,"0","7100000",32,"29.3",6,0,"TDeC"
"17479","Alianza Atlético Sullana","","https://tmssl.akamaized.net//images/wappen/big/17479.png","","","","","","2021-03-24","{#ffffff,#213a7b}","Estadio Campeones del 36",12000,"0","6900000",26,"26.5",7,0,"TDeC"
"27861","Club Atlético Grau","Club Atlético Grau","https://tmssl.akamaized.net//images/wappen/big/27861.png","","Piura","Peru","","","1919-01-05","{#f4070c,#fff400}","Estadio Campeones del 36",12000,"0","6500000",25,"27.3",6,0,"TDeC"
"2730","Sport Boys Association","Sport Boys Association","https://tmssl.akamaized.net//images/wappen/big/2730.png","","Callao","Peru","","sportboys.com.pe","1927-07-28","{#E8CADE,#000000}","Estadio Miguel Grau",17000,"0","6500000",29,"26.5",7,1,"TDeC"
"2729","Club Cienciano","Club Cienciano","https://tmssl.akamaized.net//images/wappen/big/2729.png","","Cusco","Peru","","www.cienciano.org","1901-07-08","{#c31d1f,#0b204d}","Estadio Garcilaso de la Vega",42056,"0","6450000",28,"29.1",12,0,"TDeC"
"28999","Cusco FC","Cusco Fútbol Club","https://tmssl.akamaized.net//images/wappen/big/28999.png","","Cusco","Peru","","www.cuscofc.com","2009-07-16","{#BD995B,#111311}","Estadio Inca Garcilaso de la Vega",45000,"0","6300000",24,"27.3",8,1,"TDeC"
"21655","Sport Huancayo","Club Social y Deportivo Sport Huancayo","https://tmssl.akamaized.net//images/wappen/big/21655.png","","Huancayo","Peru","","","2007-02-07","{#ce2818,#f1ce01,#ffffff}","Estadio Huancayo",20000,"0","6230000",31,"28.3",6,0,"TDeC"
"35588","Asociación Deportiva Tarma","Asociación Deportiva Tarma","https://tmssl.akamaized.net//images/wappen/big/35588.png","","Tarma","Peru","","","1929-06-18","{#02b3fe}","Estadio Unión Tarma",6000,"53000","5910000",27,"28.4",6,1,"TDeC"
"21170","Universidad Técnica de Cajamarca","Club Universidad Técnica de Cajamarca","https://tmssl.akamaized.net//images/wappen/big/21170.png","","Cajamarca","Peru","","","1964-07-14","{#e7e694,#790103}","Estadio Municipal Germán Contreras Jara",6300,"0","5460000",26,"28.5",5,0,"TDeC"
"54478","CD Los Chankas","Club Deportivo Cultural Santa Rosa PNP","https://tmssl.akamaized.net//images/wappen/big/54478.png","","Andahuaylas","Peru","","","1989-08-30","{#fff112,#8b4d68}","Estadio Los Chankas",10000,"0","5430000",26,"28.5",6,0,"TDeC"
"76945","Deportivo Garcilaso","Club Deportivo Garcilaso","https://tmssl.akamaized.net//images/wappen/big/76945.png","","Cusco","Peru","","","1957-04-13","{#35e3fa,#ffffff}","Estadio Inca Garcilaso de la Vega",45000,"0","5250000",27,"27.4",6,0,"TDeC"
"99517","Club Juan Pablo II College","Club Juan Pablo II","https://tmssl.akamaized.net//images/wappen/big/99517.png","","","","","",NULL,"{}","Complejo Deportivo Juan Pablo II",0,"0","5250000",29,"26.4",6,1,"TDeC"
"21178","Ayacucho FC","Ayacucho Fútbol Club","https://tmssl.akamaized.net//images/wappen/big/21178.png","","Ayacucho","Peru","","www.intigasdeportes.com","2015-01-06","{#ffffff,#eb6518}","Estadio Las Américas",7000,"0","5200000",32,"26.9",5,0,"TDeC"
"47107","Comerciantes Unidos","Club Deportivo Comerciantes Unidos","https://tmssl.akamaized.net//images/wappen/big/47107.png","","Cutervo, Cajamarca","Peru","","","2002-09-19","{#3e35b3,#f7f70f}","Juan Maldonado Gamarra",8000,"0","5100000",27,"27.2",5,0,"TDeC"
"861","CA Peñarol","Club Atlético Peñarol","https://tmssl.akamaized.net//images/wappen/big/861.png","Magallanes 1721","Montevideo","Uruguay","+598 2401 1891","www.xn--pearol-xwa.org/home","1891-09-28","{#000000,#FCF81F}","Campeón del Siglo",40700,"2200000","38580000",29,"27.8",3,1,"URU1"
"866","Club Nacional","Club Nacional de Football","https://tmssl.akamaized.net//images/wappen/big/866.png","Avenida 8 de Octubre 2847","Montevideo","Uruguay","+598 2487 3636","nacional.uy","1899-05-14","{#172B8C,#FFFFFF,#FF0000}","Gran Parque Central",37000,"13190000","19600000",26,"28",6,1,"URU1"
"10663","Liverpool FC Montevideo","Liverpool Fútbol Club","https://tmssl.akamaized.net//images/wappen/big/10663.png","Avenida Agraciada 4186 - Paso Molino","Montevideo","Uruguay","2309 43 57","www.liverpoolfc.com.uy","1915-02-15","{#0B05AD,#000000}","Estadio Belvedere",6589,"15860000","16079999",29,"25.2",4,1,"URU1"
"18074","CA Boston River","Club Atlético Boston River","https://tmssl.akamaized.net//images/wappen/big/18074.png","Saladero Fariña 3388","Montevideo","Uruguay","216 58 63","www.bostonriver.com.uy","1939-02-20","{#ff0d0d,#067a0a,#080808}","Estadio Campeones Olímpicos de Florida",5124,"1440000","11540000",26,"25.3",3,0,"URU1"
"2619","Defensor Sporting Club","Defensor Sporting Club","https://tmssl.akamaized.net//images/wappen/big/2619.png","","Montevideo","Uruguay","+598 2711-6167","www.defensorsporting.com.uy","1913-03-15","{#610087,#fcf9f9}","Estadio Luis Franzini",9357,"7860000","9950000",25,"24",3,0,"URU1"
"17428","CA Juventud","Club Atlético Juventud de Las Piedras","https://tmssl.akamaized.net//images/wappen/big/17428.png","Avda. Lavalleja 584","Las Piedras","Uruguay","+598 36 44477","www.juventudciudad.com","1935-12-24","{#0E00CF,#FFFCFC}","Estadio Juventud Parque Artigas",6148,"300000","8450000",28,"27.4",6,0,"URU1"
"14758","Racing Club de Montevideo","Racing Club de Montevideo","https://tmssl.akamaized.net//images/wappen/big/14758.png","MIllán 4712","12900 Montevideo","Uruguay","23594156","www.racingclub.com.uy","1919-04-06","{#067009,#FCF9F9}","Estadio Osvaldo Roberto",4500,"440000","7910000",33,"24.4",8,0,"URU1"
"1306","Danubio FC","Danubio Fútbol Club","https://tmssl.akamaized.net//images/wappen/big/1306.png","Avenida 8 de Octubre 4584","Montevideo","Uruguay","(+598 2) 506 25 50","www.danubio.org.uy","1932-03-01","{#050505,#fffcfc}","Estadio Jardines del Hipódromo María Mincheff de Lazaroff",11118,"340000","7530000",30,"26.4",6,1,"URU1"
"37535","Montevideo City Torque","Montevideo City Torque","https://tmssl.akamaized.net//images/wappen/big/37535.png","Curuzú Cuatiá s/n","Montevideo","Uruguay","","www.montevideocitytorque.com","2007-12-26","{#03A8F5,#FCFCFC,#0F0F0F}","Estadio Centenario",60235,"1150000","7330000",22,"25.2",5,0,"URU1"
"20189","Cerro Largo FC","Cerro Largo Fútbol Club","https://tmssl.akamaized.net//images/wappen/big/20189.png","","Melo","Uruguay","","www.cerrolargofc.com.uy","2002-11-19","{#042fdb,#fff7f7}","Estadio Arquitecto Antonio Eleuterio Ubilla",9000,"136000","7200000",29,"24.6",6,0,"URU1"
"2419","CA River Plate Montevideo","Club Atlético River Plate","https://tmssl.akamaized.net//images/wappen/big/2419.png","","Montevideo","Uruguay","","https://cariverplate.uy/","1932-05-11","{#ff0000,#fffcfc}","Estadio Saroldi",5165,"0","6410000",32,"25.7",7,0,"URU1"
"6044","Club Plaza Colonia","Club Plaza Colonia de Deportes","https://tmssl.akamaized.net//images/wappen/big/6044.png","Avda. General Flores 272","Colonia del Sacramento","Uruguay","+59 8 45222395","www.plazacolonia.com.uy","1917-04-22","{#00961E,#F7FAF7}","Parque Cincuentenario Juan Gaspar Prandi",3000,"0","6390000",27,"26.8",6,0,"URU1"
"14806","CA Cerro","Club Atlético Cerro","https://tmssl.akamaized.net//images/wappen/big/14806.png","Grecia 3580","Montevideo","Uruguay","00598 23111342","https://cacerro.com/","1922-12-01","{#00E3EB,#FFFCFC}","Estadio Luis Tróccoli",18000,"0","5910000",36,"25.6",5,0,"URU1"
"2403","Montevideo Wanderers","Montevideo Wanderers Fútbol Club","https://tmssl.akamaized.net//images/wappen/big/2403.png","Av. Buschental 3820","Montevideo","Uruguay","(598) 2200 19 44","www.mwfc.com.uy","1902-08-15","{#080808,#fffcfc}","Estadio Parque Alfredo Victor Viera",10500,"390000","5800000",26,"26.8",3,0,"URU1"
"17595","CA Progreso","Club Atlético Progreso","https://tmssl.akamaized.net//images/wappen/big/17595.png","Carlos María Ramírez 756/58","Montevideo","Uruguay","+598 2 3093974","www.clubatleticoprogreso.com","1917-04-30","{#FCE808,#FF0000,#050505}","Parque Abraham Paladino",5696,"470000","4860000",29,"26.8",3,0,"URU1"
"7477","Miramar Misiones","Club Sportivo Miramar Misiones","https://tmssl.akamaized.net//images/wappen/big/7477.png","Las Heras 1716","Montevideo","Uruguay","2 707 25 55","www.miramarmisiones.com","1906-03-26","{#d60808,#0a0a0a}","Parque Palermo",4072,"0","4430000",30,"25.6",6,0,"URU1"
"26468","Deportivo La Guaira","Deportivo La Guaira","https://tmssl.akamaized.net//images/wappen/big/26468.png","Avenida Principal de Boleita","Caracas","Venezuela","+58 (212) 7612168","https://www.dvolaguaira.com/","2008-07-01","{#f76e05,#3014cc}","Estadio Olímpico de la Ciudad Universitaria",24900,"-60000","8680000",29,"26.6",2,3,"VZ1A"
"14682","Carabobo FC","Carabobo Fútbol Club","https://tmssl.akamaized.net//images/wappen/big/14682.png","Avenida Bolívar Norte","Valencia","Venezuela","0058 02418089652","carabobofc.org","1997-02-26","{#960606,#f5f5f5}","Polideportivo Misael Delgado",10000,"0","7650000",28,"26.3",7,1,"VZ1A"
"43146","Universidad Central de Venezuela","Universidad Central de Venezuela Fútbol Club","https://tmssl.akamaized.net//images/wappen/big/43146.png","","Caracas","Venezuela","","","1950-01-01","{}","Estadio Olímpico de la Ciudad Universitaria",24900,"0","7380000",30,"26.4",6,1,"VZ1A"
"45193","Academia Puerto Cabello","Academia Puerto Cabello","https://tmssl.akamaized.net//images/wappen/big/45193.png","","Puerto Cabello","Venezuela","","www.academiapuertocabello.com","2011-01-21","{#0A0054,#FF5900}","Complejo Deportivo Vistamar",8000,"0","7300000",32,"28",9,1,"VZ1A"
"14596","Monagas SC","Monagas Sport Club","https://tmssl.akamaized.net//images/wappen/big/14596.png","","6201 Maturín","Venezuela","","","1987-09-23","{#1d17b5,#7d0b0b}","Estadio Monumental de Maturín",51796,"0","6480000",29,"24.8",7,2,"VZ1A"
"13297","Deportivo Táchira","Deportivo Táchira Fútbol Club","https://tmssl.akamaized.net//images/wappen/big/13297.png","","San Cristóbal","Venezuela","+58 (276) 8831340","www.deportivotachira.com","1974-01-11","{#fff200,#000000,#ffffff}","Estadio Polideportivo de Pueblo Nuevo",38755,"100000","5950000",26,"29",5,2,"VZ1A"
"531","Caracas FC","Caracas Fútbol Club","https://tmssl.akamaized.net//images/wappen/big/531.png","","Caracas","Venezuela","","www.caracasfutbolclub.com","1984-01-01","{#FF0808,#000000,#F0F0F0}","Estadio Olímpico de la Ciudad Universitaria",23940,"2300000","5500000",29,"24.6",6,2,"VZ1A"
"97642","Anzoátegui FC","Academia Anzoátegui FC","https://tmssl.akamaized.net//images/wappen/big/97642.png","Complejo Polideportivo Simón Bolívar","Puerto La Cruz, Estado Anzoátegui","Venezuela","(+58) 412 – 3375574","www.anzoateguifc.com","2021-12-12","{}","Estadio José Antonio Anzoátegui",37485,"-15000","5150000",31,"25.8",8,1,"VZ1A"
"42918","Metropolitanos FC","Metropolitanos Fútbol Club","https://tmssl.akamaized.net//images/wappen/big/42918.png","","Caracas","Venezuela","0212-9938093","www.metropolitanosfc.com","2011-08-03","{#880394}","Estadio Olímpico de la Ciudad Universitaria",24900,"460000","4160000",27,"27.1",5,0,"VZ1A"
"14555","Estudiantes de Mérida","Estudiantes de Mérida Futbol Club","https://tmssl.akamaized.net//images/wappen/big/14555.png","Avenida Urdaneta y Calle 51, Edificio Co","Mérida","Venezuela","+58 (274) 2621813","https://emfc.club/","1971-04-04","{#ffffff,#fa0000}","Estadio Metropolitano de Mérida",42200,"0","3710000",26,"28.6",6,2,"VZ1A"
"22918","Portuguesa FC","Portuguesa Fútbol Club","https://tmssl.akamaized.net//images/wappen/big/22918.png","","Araure, Portuguesa","Venezuela","","","1972-04-09","{#ff0000,#000000}","Estadio General José Antonio Páez",14100,"0","3560000",28,"27.5",1,0,"VZ1A"
"18018","Zamora FC","Zamora Fútbol Club","https://tmssl.akamaized.net//images/wappen/big/18018.png","","Barinas","Venezuela","","www.zamorafc.com","1977-02-22","{#000000,#ffffff}","Estadio Agustín Tovar",29800,"0","3400000",25,"27.8",5,1,"VZ1A"
"24982","Yaracuyanos FC","","https://tmssl.akamaized.net//images/wappen/big/24982.png","","San Felipe","Venezuela","","www.yaracuyanos.com","2006-02-20","{#fc0000,#ffffff,#0015ff}","Florentino Oropeza",11000,"0","2850000",27,"23.9",9,0,"VZ1A"
"93338","Dvo. Rayo Zuliano","Deportivo Rayo Zuliano","https://tmssl.akamaized.net//images/wappen/big/93338.png","","","","","",NULL,"{}","Estadio José  Encarnación",40800,"0","2810000",30,"25",3,0,"VZ1A"
